{
  "type": "FeatureCollection",
  "features": [
    {
      "type": "Feature",
      "properties": {
        "norad_id": 30250,
        "name": "FENGYUN 1C DEB",
        "group": "fengyun-1c-debris",
        "lat": 30.833997802282457,
        "lon": 157.2907328673481,
        "alt_km": 889.9549499297236,
        "timestamp": "2025-12-05T18:53:13.556934+00:00",
        "meta_object_name": "FENGYUN 1C DEB",
        "meta_object_id": "1999-025XK",
        "meta_epoch": "2025-12-04T23:37:37.471872",
        "meta_mean_motion": 14.01610605,
        "meta_eccentricity": 0.0068603,
        "meta_inclination": 98.7531,
        "meta_ra_of_asc_node": 331.2441,
        "meta_arg_of_pericenter": 245.2988,
        "meta_mean_anomaly": 177.1315,
        "meta_ephemeris_type": 0,
        "meta_classification_type": "U",
        "meta_norad_cat_id": 30250,
        "meta_element_set_no": 999,
        "meta_rev_at_epoch": 96383,
        "meta_bstar": 0.00072179,
        "meta_mean_motion_dot": 1.073e-05,
        "meta_mean_motion_ddot": 0,
        "tle_line1": "1 30250U 99025XK  25338.98446148  .00001073  00000+0  72179-3 0  9999",
        "tle_line2": "2 30250  98.7531 331.2441 0068603 245.2988 177.1315 14.01610605963832"
      },
      "geometry": {
        "type": "Point",
        "coordinates": [
          157.2907328673481,
          30.833997802282457
        ]
      }
    },
    {
      "type": "Feature",
      "properties": {
        "norad_id": 30251,
        "name": "FENGYUN 1C DEB",
        "group": "fengyun-1c-debris",
        "lat": -60.880791744648654,
        "lon": -18.78426550303076,
        "alt_km": 812.7722857146427,
        "timestamp": "2025-12-05T18:53:13.556944+00:00",
        "meta_object_name": "FENGYUN 1C DEB",
        "meta_object_id": "1999-025XL",
        "meta_epoch": "2025-12-05T03:11:59.259264",
        "meta_mean_motion": 14.29276471,
        "meta_eccentricity": 0.00520459,
        "meta_inclination": 99.0495,
        "meta_ra_of_asc_node": 177.1626,
        "meta_arg_of_pericenter": 352.2883,
        "meta_mean_anomaly": 129.0898,
        "meta_ephemeris_type": 0,
        "meta_classification_type": "U",
        "meta_norad_cat_id": 30251,
        "meta_element_set_no": 999,
        "meta_rev_at_epoch": 98033,
        "meta_bstar": 0.00086703078,
        "meta_mean_motion_dot": 2.19e-05,
        "meta_mean_motion_ddot": 0,
        "tle_line1": "1 30251U 99025XL  25339.13332476  .00002190  00000+0  86703-3 0  9995",
        "tle_line2": "2 30251  99.0495 177.1626 0052045 352.2883 129.0898 14.29276471980339"
      },
      "geometry": {
        "type": "Point",
        "coordinates": [
          -18.78426550303076,
          -60.880791744648654
        ]
      }
    },
    {
      "type": "Feature",
      "properties": {
        "norad_id": 30252,
        "name": "FENGYUN 1C DEB",
        "group": "fengyun-1c-debris",
        "lat": -56.35749180028914,
        "lon": 161.65224370322736,
        "alt_km": 823.9754116532049,
        "timestamp": "2025-12-05T18:53:13.556954+00:00",
        "meta_object_name": "FENGYUN 1C DEB",
        "meta_object_id": "1999-025XM",
        "meta_epoch": "2025-12-05T00:59:26.954880",
        "meta_mean_motion": 14.0969158,
        "meta_eccentricity": 0.00657501,
        "meta_inclination": 98.7437,
        "meta_ra_of_asc_node": 354.2995,
        "meta_arg_of_pericenter": 263.6297,
        "meta_mean_anomaly": 151.866,
        "meta_ephemeris_type": 0,
        "meta_classification_type": "U",
        "meta_norad_cat_id": 30252,
        "meta_element_set_no": 999,
        "meta_rev_at_epoch": 96857,
        "meta_bstar": 0.0008342139,
        "meta_mean_motion_dot": 1.45e-05,
        "meta_mean_motion_ddot": 0,
        "tle_line1": "1 30252U 99025XM  25339.04128420  .00001450  00000+0  83421-3 0  9990",
        "tle_line2": "2 30252  98.7437 354.2995 0065750 263.6297 151.8660 14.09691580968572"
      },
      "geometry": {
        "type": "Point",
        "coordinates": [
          161.65224370322736,
          -56.35749180028914
        ]
      }
    },
    {
      "type": "Feature",
      "properties": {
        "norad_id": 30253,
        "name": "FENGYUN 1C DEB",
        "group": "fengyun-1c-debris",
        "lat": -44.2095220817167,
        "lon": -120.18270055338213,
        "alt_km": 1152.6712044407232,
        "timestamp": "2025-12-05T18:53:13.556964+00:00",
        "meta_object_name": "FENGYUN 1C DEB",
        "meta_object_id": "1999-025XN",
        "meta_epoch": "2025-12-04T19:40:50.514240",
        "meta_mean_motion": 13.73140204,
        "meta_eccentricity": 0.02220885,
        "meta_inclination": 98.7531,
        "meta_ra_of_asc_node": 67.5516,
        "meta_arg_of_pericenter": 62.4106,
        "meta_mean_anomaly": 64.4184,
        "meta_ephemeris_type": 0,
        "meta_classification_type": "U",
        "meta_norad_cat_id": 30253,
        "meta_element_set_no": 999,
        "meta_rev_at_epoch": 93905,
        "meta_bstar": 0.003296527,
        "meta_mean_motion_dot": 3.605e-05,
        "meta_mean_motion_ddot": 0,
        "tle_line1": "1 30253U 99025XN  25338.82002910  .00003605  00000+0  32965-2 0  9991",
        "tle_line2": "2 30253  98.7531  67.5516 0222088  62.4106  64.4184 13.73140204939057"
      },
      "geometry": {
        "type": "Point",
        "coordinates": [
          -120.18270055338213,
          -44.2095220817167
        ]
      }
    },
    {
      "type": "Feature",
      "properties": {
        "norad_id": 30257,
        "name": "FENGYUN 1C DEB",
        "group": "fengyun-1c-debris",
        "lat": -56.44269634397451,
        "lon": 145.1214818635963,
        "alt_km": 887.9477952087191,
        "timestamp": "2025-12-05T18:53:13.556974+00:00",
        "meta_object_name": "FENGYUN 1C DEB",
        "meta_object_id": "1999-025XS",
        "meta_epoch": "2025-12-04T23:20:14.103744",
        "meta_mean_motion": 14.0971782,
        "meta_eccentricity": 0.005955,
        "meta_inclination": 98.7495,
        "meta_ra_of_asc_node": 337.7545,
        "meta_arg_of_pericenter": 120.8904,
        "meta_mean_anomaly": 304.2554,
        "meta_ephemeris_type": 0,
        "meta_classification_type": "U",
        "meta_norad_cat_id": 30257,
        "meta_element_set_no": 999,
        "meta_rev_at_epoch": 97108,
        "meta_bstar": 0.00018694,
        "meta_mean_motion_dot": 2.91e-06,
        "meta_mean_motion_ddot": 0,
        "tle_line1": "1 30257U 99025XS  25338.97238546  .00000291  00000+0  18694-3 0  9999",
        "tle_line2": "2 30257  98.7495 337.7545 0059550 120.8904 304.2554 14.09717820971080"
      },
      "geometry": {
        "type": "Point",
        "coordinates": [
          145.1214818635963,
          -56.44269634397451
        ]
      }
    },
    {
      "type": "Feature",
      "properties": {
        "norad_id": 30259,
        "name": "FENGYUN 1C DEB",
        "group": "fengyun-1c-debris",
        "lat": -38.9822065920313,
        "lon": -161.6298392260478,
        "alt_km": 578.9621419136811,
        "timestamp": "2025-12-05T18:53:13.556984+00:00",
        "meta_object_name": "FENGYUN 1C DEB",
        "meta_object_id": "1999-025XU",
        "meta_epoch": "2025-12-05T03:04:56.866944",
        "meta_mean_motion": 14.51443771,
        "meta_eccentricity": 0.02422802,
        "meta_inclination": 98.7618,
        "meta_ra_of_asc_node": 190.5135,
        "meta_arg_of_pericenter": 291.4674,
        "meta_mean_anomaly": 188.7433,
        "meta_ephemeris_type": 0,
        "meta_classification_type": "U",
        "meta_norad_cat_id": 30259,
        "meta_element_set_no": 999,
        "meta_rev_at_epoch": 99364,
        "meta_bstar": 0.00096290718,
        "meta_mean_motion_dot": 5.577e-05,
        "meta_mean_motion_ddot": 0,
        "tle_line1": "1 30259U 99025XU  25339.12843596  .00005577  00000+0  96291-3 0  9997",
        "tle_line2": "2 30259  98.7618 190.5135 0242280 291.4674 188.7433 14.51443771993647"
      },
      "geometry": {
        "type": "Point",
        "coordinates": [
          -161.6298392260478,
          -38.9822065920313
        ]
      }
    },
    {
      "type": "Feature",
      "properties": {
        "norad_id": 30263,
        "name": "FENGYUN 1C DEB",
        "group": "fengyun-1c-debris",
        "lat": -70.75898068245012,
        "lon": -111.68279108015173,
        "alt_km": 958.0617524809286,
        "timestamp": "2025-12-05T18:53:13.556994+00:00",
        "meta_object_name": "FENGYUN 1C DEB",
        "meta_object_id": "1999-025XY",
        "meta_epoch": "2025-12-05T07:41:19.862592",
        "meta_mean_motion": 14.01440671,
        "meta_eccentricity": 0.01448467,
        "meta_inclination": 98.9355,
        "meta_ra_of_asc_node": 94.652,
        "meta_arg_of_pericenter": 20.9028,
        "meta_mean_anomaly": 40.5319,
        "meta_ephemeris_type": 0,
        "meta_classification_type": "U",
        "meta_norad_cat_id": 30263,
        "meta_element_set_no": 999,
        "meta_rev_at_epoch": 95921,
        "meta_bstar": 0.0015222279,
        "meta_mean_motion_dot": 2.475e-05,
        "meta_mean_motion_ddot": 0,
        "tle_line1": "1 30263U 99025XY  25339.32036878  .00002475  00000+0  15222-2 0  9999",
        "tle_line2": "2 30263  98.9355  94.6520 0144846  20.9028  40.5319 14.01440671959215"
      },
      "geometry": {
        "type": "Point",
        "coordinates": [
          -111.68279108015173,
          -70.75898068245012
        ]
      }
    }
  ]
}